CCSDS_OMM_VERS,COMMENT,CREATION_DATE,ORIGINATOR,OBJECT_NAME,OBJECT_ID,CENTER_NAME,REF_FRAME,TIME_SYSTEM,MEAN_ELEMENT_THEORY,EPOCH,MEAN_MOTION,ECCENTRICITY,INCLINATION,RA_OF_ASC_NODE,ARG_OF_PERICENTER,MEAN_ANOMALY,EPHEMERIS_TYPE,CLASSIFICATION_TYPE,NORAD_CAT_ID,ELEMENT_SET_NO,REV_AT_EPOCH,BSTAR,MEAN_MOTION_DOT,MEAN_MOTION_DDOT,SEMIMAJOR_AXIS,PERIOD,APOAPSIS,PERIAPSIS,OBJECT_TYPE,RCS_SIZE,COUNTRY_CODE,LAUNCH_DATE,SITE,DECAY_DATE,FILE,GP_ID,TLE_LINE0,TLE_LINE1,TLE_LINE2
2.0,GENERATED VIA SPACE-TRACK.ORG API,2022-08-20T06:46:12,18 SPCS,STARLINK-1335,2020-025BC,EARTH,TEME,UTC,SGP4,2022-08-20T01:12:56.875392,15.0639744,0.0001012,53.0531,141.9426,105.0411,255.069,0,U,45581,999,12932,3.1556e-05,1.89e-06,0.0,6925.356,95.592,547.922,546.521,PAYLOAD,LARGE,US,2020-04-22,AFETR,,3540756,210551296,0 STARLINK-1335,1 45581U 20025BC  22232.05065828  .00000189  00000-0  31556-4 0  9999,2 45581  53.0531 141.9426 0001012 105.0411 255.0690 15.06397440129328
2.0,GENERATED VIA SPACE-TRACK.ORG API,2022-08-20T08:16:12,18 SPCS,STARLINK-1236,2020-012P,EARTH,TEME,UTC,SGP4,2022-08-20T01:11:38.450112,15.06387367,0.0001404,53.0541,111.9576,82.3115,277.8033,0,U,45191,999,13860,-8.2225e-05,-1.506e-05,0.0,6925.387,95.593,548.225,546.28,PAYLOAD,LARGE,US,2020-02-17,AFETR,,3540930,210554921,0 STARLINK-1236,1 45191U 20012P   22232.04975058 -.00001506  00000-0 -82225-4 0  9991,2 45191  53.0541 111.9576 0001404  82.3115 277.8033 15.06387367138603
2.0,GENERATED VIA SPACE-TRACK.ORG API,2022-08-20T06:36:12,18 SPCS,STARLINK-1354,2020-025AH,EARTH,TEME,UTC,SGP4,2022-08-20T01:11:38.251392,15.06390866,0.0001295,53.0545,151.9385,81.0389,279.0747,0,U,45562,999,12918,-5.4037e-05,-1.086e-05,0.0,6925.377,95.593,548.138,546.345,PAYLOAD,LARGE,US,2020-04-22,AFETR,,3540734,210550738,0 STARLINK-1354,1 45562U 20025AH  22232.04974828 -.00001086  00000-0 -54037-4 0  9994,2 45562  53.0545 151.9385 0001295  81.0389 279.0747 15.06390866129185
2.0,GENERATED VIA SPACE-TRACK.ORG API,2022-08-20T06:46:12,18 SPCS,STARLINK-2035,2021-012AH,EARTH,TEME,UTC,SGP4,2022-08-20T01:10:59.802528,15.06381008,0.000174,53.0568,137.0117,88.7756,271.3433,0,U,47651,999,8388,-0.00014383,-2.422e-05,0.0,6925.407,95.593,548.477,546.067,PAYLOAD,LARGE,US,2021-02-16,AFETR,,3540764,210551610,0 STARLINK-2035,1 47651U 21012AH  22232.04930327 -.00002422  00000-0 -14383-3 0  9992,2 47651  53.0568 137.0117 0001740  88.7756 271.3433 15.06381008 83887
2.0,GENERATED VIA SPACE-TRACK.ORG API,2022-08-20T06:56:12,18 SPCS,STARLINK-2564,2021-036J,EARTH,TEME,UTC,SGP4,2022-08-20T01:09:38.418912,15.06397843,0.0001261,53.0547,146.957,67.4317,292.6806,0,U,48284,999,7330,-4.4194e-05,-9.4e-06,0.0,6925.355,95.592,548.093,546.347,PAYLOAD,LARGE,US,2021-04-29,AFETR,,3540781,210552318,0 STARLINK-2564,1 48284U 21036J   22232.04836133 -.00000940  00000-0 -44194-4 0  9998,2 48284  53.0547 146.9570 0001261  67.4317 292.6806 15.06397843 73304
2.0,GENERATED VIA SPACE-TRACK.ORG API,2022-08-20T07:16:13,18 SPCS,STARLINK-1048,2019-074AS,EARTH,TEME,UTC,SGP4,2022-08-20T01:08:58.905600,15.06394404,0.000153,53.0527,251.9666,77.713,282.4031,0,U,44753,999,15333,4.4384e-05,3.8e-06,0.0,6925.366,95.592,548.29,546.171,PAYLOAD,LARGE,US,2019-11-11,AFETR,,3540838,210553387,0 STARLINK-1048,1 44753U 19074AS  22232.04790400  .00000380  00000-0  44384-4 0  9997,2 44753  53.0527 251.9666 0001530  77.7130 282.4031 15.06394404153337
2.0,GENERATED VIA SPACE-TRACK.ORG API,2022-08-20T06:46:12,18 SPCS,STARLINK-1375,2020-025R,EARTH,TEME,UTC,SGP4,2022-08-20T01:08:57.978528,15.06401402,0.0001235,53.0545,171.9709,94.593,265.52,0,U,45546,999,12891,0.0001039,1.267e-05,0.0,6925.344,95.592,548.065,546.354,PAYLOAD,LARGE,US,2020-04-22,AFETR,,3540758,210551537,0 STARLINK-1375,1 45546U 20025R   22232.04789327  .00001267  00000-0  10390-3 0  9996,2 45546  53.0545 171.9709 0001235  94.5930 265.5200 15.06401402128917
2.0,GENERATED VIA SPACE-TRACK.ORG API,2022-08-20T06:56:12,18 SPCS,STARLINK-1767,2020-062W,EARTH,TEME,UTC,SGP4,2022-08-20T01:08:56.202144,15.0640049,0.0001391,53.0557,81.9426,79.8852,280.2294,0,U,46345,999,10890,3.9205e-05,3.03e-06,0.0,6925.347,95.592,548.175,546.249,PAYLOAD,LARGE,US,2020-09-03,AFETR,,3540785,210552361,0 STARLINK-1767,1 46345U 20062W   22232.04787271  .00000303  00000-0  39205-4 0  9998,2 46345  53.0557  81.9426 0001391  79.8852 280.2294 15.06400490108906
2.0,GENERATED VIA SPACE-TRACK.ORG API,2022-08-20T07:56:12,18 SPCS,STARLINK-2021,2021-009BJ,EARTH,TEME,UTC,SGP4,2022-08-20T01:08:19.368096,15.06392927,0.000153,53.0545,76.9621,79.2783,280.8378,0,U,47604,999,8595,2.1751e-05,4.2e-07,0.0,6925.37,95.593,548.295,546.176,PAYLOAD,LARGE,US,2021-02-04,AFETR,,3540899,210554524,0 STARLINK-2021,1 47604U 21009BJ  22232.04744639  .00000042  00000-0  21751-4 0  9997,2 47604  53.0545  76.9621 0001530  79.2783 280.8378 15.06392927 85958
2.0,GENERATED VIA SPACE-TRACK.ORG API,2022-08-20T06:46:12,18 SPCS,STARLINK-2537,2021-036AB,EARTH,TEME,UTC,SGP4,2022-08-20T01:08:19.066560,15.06399038,0.0001632,53.0551,156.9639,74.7036,285.4133,0,U,48301,999,7316,-0.00018426,-3.025e-05,0.0,6925.352,95.592,548.347,546.086,PAYLOAD,LARGE,US,2021-04-29,AFETR,,3540760,210551320,0 STARLINK-2537,1 48301U 21036AB  22232.04744290 -.00003025  00000-0 -18426-3 0  9995,2 48301  53.0551 156.9639 0001632  74.7036 285.4133 15.06399038 73162
2.0,GENERATED VIA SPACE-TRACK.ORG API,2022-08-20T06:36:12,18 SPCS,STARLINK-1332,2020-025BA,EARTH,TEME,UTC,SGP4,2022-08-20T01:07:41.713248,15.06374592,0.0001601,53.0541,102.1159,91.457,268.6602,0,U,45579,999,12989,-0.00035134,-5.507e-05,0.0,6925.426,95.594,548.4,546.183,PAYLOAD,LARGE,US,2020-04-22,AFETR,,3540732,210550718,0 STARLINK-1332,1 45579U 20025BA  22232.04701057 -.00005507  00000-0 -35134-3 0  9992,2 45579  53.0541 102.1159 0001601  91.4570 268.6602 15.06374592129894
2.0,GENERATED VIA SPACE-TRACK.ORG API,2022-08-20T06:56:12,18 SPCS,STARLINK-1765,2020-062V,EARTH,TEME,UTC,SGP4,2022-08-20T01:07:39.255168,15.06392484,0.0001432,53.0559,61.9742,81.8129,278.3022,0,U,46344,999,10916,7.0547e-05,7.69e-06,0.0,6925.372,95.593,548.228,546.245,PAYLOAD,LARGE,US,2020-09-03,AFETR,,3540785,210551879,0 STARLINK-1765,1 46344U 20062V   22232.04698212  .00000769  00000-0  70547-4 0  9993,2 46344  53.0559  61.9742 0001432  81.8129 278.3022 15.06392484109161
2.0,GENERATED VIA SPACE-TRACK.ORG API,2022-08-20T07:46:12,18 SPCS,STARLINK-1960,2021-009P,EARTH,TEME,UTC,SGP4,2022-08-20T01:06:59.632992,15.06395394,0.0001356,53.054,86.974,101.1647,258.9495,0,U,47561,999,8582,0.00012085,1.519e-05,0.0,6925.363,95.592,548.167,546.289,PAYLOAD,LARGE,US,2021-02-04,AFETR,,3540889,210554299,0 STARLINK-1960,1 47561U 21009P   22232.04652353  .00001519  00000-0  12085-3 0  9999,2 47561  53.0540  86.9740 0001356 101.1647 258.9495 15.06395394 85821
2.0,GENERATED VIA SPACE-TRACK.ORG API,2022-08-20T06:36:12,18 SPCS,STARLINK-1333,2020-025BB,EARTH,TEME,UTC,SGP4,2022-08-20T01:06:20.232000,15.06386429,0.0001403,53.0545,151.9584,85.4651,274.6498,0,U,45580,999,12918,-0.00016389,-2.721e-05,0.0,6925.39,95.593,548.227,546.284,PAYLOAD,LARGE,US,2020-04-22,AFETR,,3540733,210551084,0 STARLINK-1333,1 45580U 20025BB  22232.04606750 -.00002721  00000-0 -16389-3 0  9994,2 45580  53.0545 151.9584 0001403  85.4651 274.6498 15.06386429129181
2.0,GENERATED VIA SPACE-TRACK.ORG API,2022-08-20T06:46:12,18 SPCS,STARLINK-1528,2021-012A,EARTH,TEME,UTC,SGP4,2022-08-20T01:05:39.388128,15.06380005,0.0001246,53.0525,136.9656,73.7118,286.4008,0,U,47620,999,8388,-0.00036622,-5.729e-05,0.0,6925.41,95.593,548.138,546.412,PAYLOAD,LARGE,US,2021-02-16,AFETR,,3540756,210551291,0 STARLINK-1528,1 47620U 21012A   22232.04559477 -.00005729  00000-0 -36622-3 0  9994,2 47620  53.0525 136.9656 0001246  73.7118 286.4008 15.06380005 83880
2.0,GENERATED VIA SPACE-TRACK.ORG API,2022-08-20T07:56:12,18 SPCS,STARLINK-1979,2021-009AF,EARTH,TEME,UTC,SGP4,2022-08-20T01:04:59.633760,15.06386045,0.0001111,53.0537,81.9766,80.6808,279.4307,0,U,47577,999,8588,-0.00028689,-4.55e-05,0.0,6925.391,95.593,548.026,546.487,PAYLOAD,LARGE,US,2021-02-04,AFETR,,3540898,210554501,0 STARLINK-1979,1 47577U 21009AF  22232.04513465 -.00004550  00000-0 -28689-3 0  9993,2 47577  53.0537  81.9766 0001111  80.6808 279.4307 15.06386045 85885
2.0,GENERATED VIA SPACE-TRACK.ORG API,2022-08-20T08:46:12,18 SPCS,STARLINK-2069,2021-005L,EARTH,TEME,UTC,SGP4,2022-08-20T01:04:59.507616,15.06415254,0.0001367,53.0553,121.967,71.9439,288.1698,0,U,47359,999,8818,-0.00014728,-2.475e-05,0.0,6925.302,95.591,548.113,546.22,PAYLOAD,LARGE,US,2021-01-20,AFETR,,3540963,210555669,0 STARLINK-2069,1 47359U 21005L   22232.04513319 -.00002475  00000-0 -14728-3 0  9998,2 47359  53.0553 121.9670 0001367  71.9439 288.1698 15.06415254 88187
2.0,GENERATED VIA SPACE-TRACK.ORG API,2022-08-20T06:56:12,18 SPCS,STARLINK-2725,2021-044AV,EARTH,TEME,UTC,SGP4,2022-08-20T01:04:22.841184,15.06386122,0.0001329,53.0554,147.2102,88.8091,271.305,0,U,48681,999,6957,-3.2674e-05,-7.68e-06,0.0,6925.391,95.593,548.176,546.336,PAYLOAD,LARGE,US,2021-05-26,AFETR,,3540796,210552529,0 STARLINK-2725,1 48681U 21044AV  22232.04470881 -.00000768  00000-0 -32674-4 0  9990,2 48681  53.0554 147.2102 0001329  88.8091 271.3050 15.06386122 69576
2.0,GENERATED VIA SPACE-TRACK.ORG API,2022-08-20T07:06:17,18 SPCS,STARLINK-2112,2021-005AU,EARTH,TEME,UTC,SGP4,2022-08-20T01:04:18.153984,15.06389133,0.0001383,53.0543,96.9799,76.697,283.4173,0,U,47391,999,8848,0.00013528,1.734e-05,0.0,6925.382,95.593,548.205,546.289,PAYLOAD,LARGE,US,2021-01-20,AFETR,,3540821,210553004,0 STARLINK-2112,1 47391U 21005AU  22232.04465456  .00001734  00000-0  13528-3 0  9994,2 47391  53.0543  96.9799 0001383  76.6970 283.4173 15.06389133 88480
